ORBCOMM-X               
1 21576U 91050C   25229.45426963  .00000240  00000+0  84024-4 0  9992
2 21576  98.3392 294.7944 0003780  21.6424 338.4926 14.43301137791170
ORBCOMM FM01            
1 23545U 95017A   25229.41081900  .00003796  00000+0  39519-3 0  9998
2 23545  69.9626 281.4027 0005548 248.9633 111.0929 14.90656810621989
ORBCOMM FM02            
1 23546U 95017B   25229.51699204  .00005262  00000+0  53063-3 0  9992
2 23546  69.9652 300.3199 0006673 243.5410 116.5061 14.91668328621608
ORBCOMM FM08            
1 25112U 97084A   25229.53639880  .00001191  00000+0  37162-3 0  9994
2 25112  45.0144  73.3263 0006076 193.0044 167.0652 14.45969115450422
ORBCOMM FM10            
1 25113U 97084B   25228.62833868  .00001156  00000+0  36365-3 0  9991
2 25113  45.0154  80.1738 0004761 151.2520 208.8594 14.45747461625264
ORBCOMM FM11            
1 25114U 97084C   25229.54184952  .00001134  00000+0  35940-3 0  9991
2 25114  45.0140  76.5336 0005610 158.9567 201.1516 14.45497448450388
ORBCOMM FM12            
1 25115U 97084D   25228.95053445  .00001054  00000+0  33676-3 0  9993
2 25115  45.0146  79.1143 0004643 151.1648 208.9461 14.45516880450308
ORBCOMM FM09            
1 25116U 97084E   25228.84989966  .00000963  00000+0  31204-3 0  9991
2 25116  45.0149  80.5909 0005996 142.2123 217.9150 14.45388661450252
